NORAD_CAT_ID,OBJECT_NAME,OBJECT_TYPE,EPOCH,MEAN_MOTION,ECCENTRICITY,INCLINATION,RA_OF_ASC_NODE,ARG_OF_PERICENTER,MEAN_ANOMALY,BSTAR,MEAN_MOTION_DOT,MEAN_MOTION_DDOT,TLE_LINE0,TLE_LINE1,TLE_LINE2,SEMIMAJOR_AXIS,PERIOD,APOGEE,PERIGEE,DECAYED
51874.0,STARLINK-3574,PAYLOAD,2023-04-13 05:54:19,15.08852474,0.000141,53.2154,94.1219,93.3666,266.7487,0.00035649,5.392e-05,0.0,0 STARLINK-3574,1 51874U 22022Y   23103.24605714  .00005392  00000-0  35649-3 0  9990,2 51874  53.2154  94.1219 0001410  93.3666 266.7487 15.08852474 62868,6917.842,95.437,540.683,538.732,0.0
51874.0,STARLINK-3574,PAYLOAD,2023-04-13 10:40:28,15.08856861,0.0001416,53.2158,93.2293,95.5021,264.6133,0.00040999,6.246e-05,0.0,0 STARLINK-3574,1 51874U 22022Y   23103.44477472  .00006246  00000-0  40999-3 0  9993,2 51874  53.2158  93.2293 0001416  95.5021 264.6133 15.08856861 62891,6917.829,95.436,540.673,538.714,0.0
51874.0,STARLINK-3574,PAYLOAD,2023-04-14 08:55:51,15.08873035,0.0001425,53.2161,89.0662,94.3417,265.7738,0.00057684,8.913e-05,0.0,0 STARLINK-3574,1 51874U 22022Y   23104.37212144  .00008913  00000-0  57684-3 0  9991,2 51874  53.2161  89.0662 0001425  94.3417 265.7738 15.08873035 63036,6917.779,95.435,540.63,538.659,0.0
51874.0,STARLINK-3574,PAYLOAD,2023-04-15 05:35:52,15.08835661,0.0001333,53.2159,85.2009,107.9647,252.1491,-0.0001089,-2.02e-05,0.0,0 STARLINK-3574,1 51874U 22022Y   23105.23325126 -.00002020  00000-0 -10890-3 0  9995,2 51874  53.2159  85.2009 0001333 107.9647 252.1491 15.08835661 63163,6917.894,95.438,540.681,538.836,0.0
51874.0,STARLINK-3574,PAYLOAD,2023-04-16 07:02:04,15.08835279,0.0001446,53.216,80.4444,115.0857,245.0286,0.00050514,7.759e-05,0.0,0 STARLINK-3574,1 51874U 22022Y   23106.29310248  .00007759  00000-0  50514-3 0  9990,2 51874  53.2160  80.4444 0001446 115.0857 245.0286 15.08835279 63329,6917.895,95.438,540.76,538.759,0.0
51874.0,STARLINK-3574,PAYLOAD,2023-04-17 13:14:23,15.08845847,0.0001473,53.2164,74.7947,117.293,242.8212,0.00036893,5.589e-05,0.0,0 STARLINK-3574,1 51874U 22022Y   23107.55166341  .00005589  00000-0  36893-3 0  9996,2 51874  53.2164  74.7947 0001473 117.2930 242.8212 15.08845847 63510,6917.863,95.437,540.747,538.709,0.0
51874.0,STARLINK-3574,PAYLOAD,2023-04-18 06:43:38,15.08836821,0.0001522,53.2181,71.5238,80.1345,279.9819,0.00011227,1.499e-05,0.0,0 STARLINK-3574,1 51874U 22022Y   23108.28031036  .00001499  00000-0  11227-3 0  9999,2 51874  53.2181  71.5238 0001522  80.1345 279.9819 15.08836821 63628,6917.89,95.438,540.808,538.702,0.0
51874.0,STARLINK-3574,PAYLOAD,2023-04-19 06:34:25,15.08841037,0.0001343,53.2171,67.0573,104.8277,255.2864,0.00010137,1.326e-05,0.0,0 STARLINK-3574,1 51874U 22022Y   23109.27390942  .00001326  00000-0  10137-3 0  9991,2 51874  53.2171  67.0573 0001343 104.8277 255.2864 15.08841037 63776,6917.877,95.437,540.671,538.813,0.0
51874.0,STARLINK-3574,PAYLOAD,2023-04-20 06:25:12,15.08845681,0.0001301,53.2173,62.5986,95.9824,264.1316,0.00017013,2.421e-05,0.0,0 STARLINK-3574,1 51874U 22022Y   23110.26750806  .00002421  00000-0  17013-3 0  9998,2 51874  53.2173  62.5986 0001301  95.9824 264.1316 15.08845681 63925,6917.863,95.437,540.628,538.828,0.0
51874.0,STARLINK-3574,PAYLOAD,2023-04-21 03:05:14,15.08835565,0.0001584,53.2171,58.7354,84.1614,275.9558,-1.3355e-05,-5.01e-06,0.0,0 STARLINK-3574,1 51874U 22022Y   23111.12863766 -.00000501  00000-0 -13355-4 0  9999,2 51874  53.2171  58.7354 0001584  84.1614 275.9558 15.08835565 64052,6917.894,95.438,540.855,538.663,0.0
51874.0,STARLINK-3574,PAYLOAD,2023-04-21 06:16:00,15.08836801,0.0001275,53.2176,58.1401,85.769,274.3447,2.218e-05,6.5e-07,0.0,0 STARLINK-3574,1 51874U 22022Y   23111.26111876  .00000065  00000-0  22180-4 0  9991,2 51874  53.2176  58.1401 0001275  85.7690 274.3447 15.08836801 64078,6917.89,95.438,540.637,538.873,0.0
51874.0,STARLINK-3574,PAYLOAD,2023-04-22 02:56:00,15.08856532,0.0001257,53.2173,54.2749,78.9336,281.1798,7.3584e-05,8.84e-06,0.0,0 STARLINK-3574,1 51874U 22022Y   23112.12222424  .00000884  00000-0  73584-4 0  9992,2 51874  53.2173  54.2749 0001257  78.9336 281.1798 15.08856532 64201,6917.83,95.437,540.564,538.825,0.0
51874.0,STARLINK-3574,PAYLOAD,2023-04-23 04:22:10,15.08847369,0.0001581,53.2174,49.5206,82.6158,277.5014,0.0001101,1.465e-05,0.0,0 STARLINK-3574,1 51874U 22022Y   23113.18206804  .00001465  00000-0  11010-3 0  9994,2 51874  53.2174  49.5206 0001581  82.6158 277.5014 15.08847369 64366,6917.858,95.437,540.817,538.629,0.0
51874.0,STARLINK-3574,PAYLOAD,2023-04-24 05:48:19,15.08856038,0.0001447,53.2183,44.76,92.4726,267.6432,3.7213e-05,3.05e-06,0.0,0 STARLINK-3574,1 51874U 22022Y   23114.24189806  .00000305  00000-0  37213-4 0  9990,2 51874  53.2183  44.7600 0001447  92.4726 267.6432 15.08856038 64527,6917.831,95.437,540.697,538.695,0.0
51874.0,STARLINK-3574,PAYLOAD,2023-04-25 05:39:05,15.08870498,0.0001224,53.2178,40.3001,113.4892,246.6229,0.00031519,4.736e-05,0.0,0 STARLINK-3574,1 51874U 22022Y   23115.23547916  .00004736  00000-0  31519-3 0  9994,2 51874  53.2178  40.3001 0001224 113.4892 246.6229 15.08870498 64672,6917.787,95.436,540.499,538.805,0.0
51874.0,STARLINK-3574,PAYLOAD,2023-04-26 02:19:08,15.08835219,0.0001363,53.2179,36.4347,114.6757,245.4377,-0.0001836,-3.208e-05,0.0,0 STARLINK-3574,1 51874U 22022Y   23116.09662493 -.00003208  00000-0 -18360-3 0  9991,2 51874  53.2179  36.4347 0001363 114.6757 245.4377 15.08835219 64807,6917.895,95.438,540.703,538.817,0.0
51874.0,STARLINK-3574,PAYLOAD,2023-04-26 18:13:00,15.08831282,0.0001478,53.219,33.4589,115.2549,244.8596,-0.00012989,-2.354e-05,0.0,0 STARLINK-3574,1 51874U 22022Y   23116.75903152 -.00002354  00000-0 -12989-3 0  9996,2 51874  53.2190  33.4589 0001478 115.2549 244.8596 15.08831282 64901,6917.907,95.438,540.795,538.75,0.0
51874.0,STARLINK-3574,PAYLOAD,2023-04-27 03:45:19,15.08840195,0.0001378,53.217,31.6772,103.5351,256.5794,-1.1644e-05,-4.73e-06,0.0,0 STARLINK-3574,1 51874U 22022Y   23117.15647007 -.00000473  00000-0 -11644-4 0  9993,2 51874  53.2170  31.6772 0001378 103.5351 256.5794 15.08840195 64962,6917.88,95.438,540.698,538.792,0.0
51874.0,STARLINK-3574,PAYLOAD,2023-04-28 03:36:06,15.08855759,0.0001388,53.2171,27.2195,81.7767,278.3382,0.00043061,6.575e-05,0.0,0 STARLINK-3574,1 51874U 22022Y   23118.15006984  .00006575  00000-0  43061-3 0  9991,2 51874  53.2171  27.2195 0001388  81.7767 278.3382 15.08855759 65117,6917.832,95.437,540.657,538.737,0.0
51874.0,STARLINK-3574,PAYLOAD,2023-04-28 21:05:21,15.08836814,0.0001205,53.2168,23.9454,102.5563,257.5564,4.063e-05,3.59e-06,0.0,0 STARLINK-3574,1 51874U 22022Y   23118.87871893  .00000359  00000-0  40630-4 0  9993,2 51874  53.2168  23.9454 0001205 102.5563 257.5564 15.08836814 65222,6917.89,95.438,540.589,538.922,0.0
51874.0,STARLINK-3574,PAYLOAD,2023-04-29 00:16:07,15.08841134,0.0001162,53.2177,23.3524,88.484,271.6286,9.5173e-05,1.227e-05,0.0,0 STARLINK-3574,1 51874U 22022Y   23119.01119734  .00001227  00000-0  95173-4 0  9996,2 51874  53.2177  23.3524 0001162  88.4840 271.6286 15.08841134 65247,6917.877,95.437,540.546,538.938,0.0
51874.0,STARLINK-3574,PAYLOAD,2023-04-30 03:17:40,15.08848692,0.0001184,53.2177,18.2958,92.2699,267.8429,0.00020514,2.979e-05,0.0,0 STARLINK-3574,1 51874U 22022Y   23120.13727438  .00002979  00000-0  20514-3 0  9998,2 51874  53.2177  18.2958 0001184  92.2699 267.8429 15.08848692 65411,6917.854,95.437,540.538,538.9,0.0
51874.0,STARLINK-3574,PAYLOAD,2023-04-30 20:46:55,15.08836966,0.0001142,53.2174,15.0234,92.8104,267.3019,5.9317e-05,6.56e-06,0.0,0 STARLINK-3574,1 51874U 22022Y   23120.86592132  .00000656  00000-0  59317-4 0  9993,2 51874  53.2174  15.0234 0001142  92.8104 267.3019 15.08836966 65524,6917.89,95.438,540.545,538.965,0.0
51874.0,STARLINK-3574,PAYLOAD,2023-04-30 22:22:18,15.08837199,0.0001134,53.2175,14.726,91.9046,268.2076,5.7185e-05,6.22e-06,0.0,0 STARLINK-3574,1 51874U 22022Y   23120.93216123  .00000622  00000-0  57185-4 0  9998,2 51874  53.2175  14.7260 0001134  91.9046 268.2076 15.08837199 65539,6917.889,95.438,540.538,538.969,0.0
51874.0,STARLINK-3574,PAYLOAD,2023-05-01 22:13:05,15.08843053,0.0001167,53.2174,10.266,92.5955,267.517,0.00011162,1.489e-05,0.0,0 STARLINK-3574,1 51874U 22022Y   23121.92576018  .00001489  00000-0  11162-3 0  9996,2 51874  53.2174  10.2660 0001167  92.5955 267.5170 15.08843053 65684,6917.871,95.437,540.543,538.929,0.0
51874.0,STARLINK-3574,PAYLOAD,2023-05-02 20:28:29,15.08847128,0.0001287,53.2184,6.1048,106.852,253.2614,0.00019112,2.756e-05,0.0,0 STARLINK-3574,1 51874U 22022Y   23122.85311744  .00002756  00000-0  19112-3 0  9993,2 51874  53.2184   6.1048 0001287 106.8520 253.2614 15.08847128 65827,6917.859,95.437,540.614,538.833,0.0
51874.0,STARLINK-3574,PAYLOAD,2023-05-03 01:14:38,15.08853203,0.0001229,53.2179,5.2122,101.1779,258.9351,0.00027392,4.076e-05,0.0,0 STARLINK-3574,1 51874U 22022Y   23123.05183424  .00004076  00000-0  27392-3 0  9994,2 51874  53.2179   5.2122 0001229 101.1779 258.9351 15.08853203 65858,6917.84,95.437,540.555,538.855,0.0
51874.0,STARLINK-3574,PAYLOAD,2023-05-03 09:11:34,15.08844117,0.0001488,53.218,3.7257,88.7834,271.3328,0.00010212,1.338e-05,0.0,0 STARLINK-3574,1 51874U 22022Y   23123.38303808  .00001338  00000-0  10212-3 0  9991,2 51874  53.2180   3.7257 0001488  88.7834 271.3328 15.08844117 65904,6917.868,95.437,540.762,538.703,0.0
51874.0,STARLINK-3574,PAYLOAD,2023-05-03 20:19:16,15.08835248,0.0001353,53.2176,1.6454,88.8247,271.29,-4.4295e-05,-9.93e-06,0.0,0 STARLINK-3574,1 51874U 22022Y   23123.84672210 -.00000993  00000-0 -44295-4 0  9995,2 51874  53.2176   1.6454 0001353  88.8247 271.2900 15.08835248 65972,6917.895,95.438,540.696,538.824,0.0
51874.0,STARLINK-3574,PAYLOAD,2023-05-03 21:54:40,15.08832705,0.0001473,53.2185,1.3492,84.8862,275.2299,-8.6139e-05,-1.658e-05,0.0,0 STARLINK-3574,1 51874U 22022Y   23123.91296399 -.00001658  00000-0 -86139-4 0  9995,2 51874  53.2185   1.3492 0001473  84.8862 275.2299 15.08832705 65984,6917.903,95.438,540.787,538.749,0.0
